start=new Date('2021-09-17T00:00:00.000Z').valueOf();
sats=[{"PERIAPSIS":"545.949","MEAN_ANOMALY":"276.6656","CENTER_NAME":"EARTH","FILE":"3117121","BSTAR":"-0.00005197800000","REV_AT_EPOCH":"2061","INCLINATION":"53.0551","DECAY_DATE":null,"EPHEMERIS_TYPE":"0","MEAN_MOTION_DOT":"-0.00001056","NORAD_CAT_ID":"48363","TIME_SYSTEM":"UTC","ECCENTRICITY":"0.00018540","EPOCH":"2021-09-16T08:43:13.042560","ELEMENT_SET_NO":"999","SEMIMAJOR_AXIS":"6925.368","GP_ID":"184823407","MEAN_MOTION":"15.06393581","COUNTRY_CODE":"US","OBJECT_ID":"2021-038L","MEAN_MOTION_DDOT":"0.0000000000000","PERIOD":"95.593","RCS_SIZE":"LARGE","MEAN_ELEMENT_THEORY":"SGP4","LAUNCH_DATE":"2021-05-04","TLE_LINE2":"2 48363  53.0551 137.8680 0001854  83.4544 276.6656 15.06393581 20612","CLASSIFICATION_TYPE":"U","OBJECT_TYPE":"PAYLOAD","OBJECT_NAME":"STARLINK-2626","ARG_OF_PERICENTER":"83.4544","RA_OF_ASC_NODE":"137.8680","APOAPSIS":"548.517","REF_FRAME":"TEME","SITE":"AFETR","TLE_LINE1":"1 48363U 21038L   21259.36334540 -.00001056  00000-0 -51978-4 0  9993"},{"BSTAR":"-0.00000374960000","CENTER_NAME":"EARTH","FILE":"3117438","PERIAPSIS":"545.845","MEAN_ANOMALY":"286.5327","TIME_SYSTEM":"UTC","NORAD_CAT_ID":"48364","MEAN_MOTION_DOT":"-0.00000338","REV_AT_EPOCH":"2065","INCLINATION":"53.0552","DECAY_DATE":null,"EPHEMERIS_TYPE":"0","ELEMENT_SET_NO":"999","ECCENTRICITY":"0.00020080","EPOCH":"2021-09-16T14:58:42.240000","SEMIMAJOR_AXIS":"6925.370","MEAN_MOTION":"15.06392919","COUNTRY_CODE":"US","GP_ID":"184853648","CLASSIFICATION_TYPE":"U","TLE_LINE2":"2 48364  53.0552 136.6972 0002008  73.5883 286.5327 15.06392919 20656","LAUNCH_DATE":"2021-05-04","MEAN_ELEMENT_THEORY":"SGP4","RCS_SIZE":"LARGE","MEAN_MOTION_DDOT":"0.0000000000000","OBJECT_ID":"2021-038M","PERIOD":"95.593","TLE_LINE1":"1 48364U 21038M   21259.62410000 -.00000338  00000-0 -37496-5 0  9991","APOAPSIS":"548.626","SITE":"AFETR","REF_FRAME":"TEME","RA_OF_ASC_NODE":"136.6972","OBJECT_NAME":"STARLINK-2611","OBJECT_TYPE":"PAYLOAD","ARG_OF_PERICENTER":"73.5883"},{"EPOCH":"2021-09-16T20:50:21.811200","ECCENTRICITY":"0.00021620","ELEMENT_SET_NO":"999","MEAN_ANOMALY":"284.8611","PERIAPSIS":"545.702","BSTAR":"0.00010440000000","FILE":"3117438","CENTER_NAME":"EARTH","MEAN_MOTION_DOT":"0.00001274","DECAY_DATE":null,"EPHEMERIS_TYPE":"0","INCLINATION":"53.0557","REV_AT_EPOCH":"2069","TIME_SYSTEM":"UTC","NORAD_CAT_ID":"48365","MEAN_ELEMENT_THEORY":"SGP4","RCS_SIZE":"LARGE","PERIOD":"95.592","OBJECT_ID":"2021-038N","MEAN_MOTION_DDOT":"0.0000000000000","CLASSIFICATION_TYPE":"U","TLE_LINE2":"2 48365  53.0557 135.6039 0002162  75.2617 284.8611 15.06404573 20691","LAUNCH_DATE":"2021-05-04","RA_OF_ASC_NODE":"135.6039","OBJECT_TYPE":"PAYLOAD","OBJECT_NAME":"STARLINK-2608","ARG_OF_PERICENTER":"75.2617","TLE_LINE1":"1 48365U 21038N   21259.86830800  .00001274  00000-0  10440-3 0  9998","REF_FRAME":"TEME","SITE":"AFETR","APOAPSIS":"548.697","SEMIMAJOR_AXIS":"6925.335","GP_ID":"184853529","COUNTRY_CODE":"US","MEAN_MOTION":"15.06404573"},{"MEAN_MOTION_DOT":"0.00000758","DECAY_DATE":null,"EPHEMERIS_TYPE":"0","INCLINATION":"53.0546","REV_AT_EPOCH":"2074","TIME_SYSTEM":"UTC","NORAD_CAT_ID":"48366","MEAN_ANOMALY":"286.8867","PERIAPSIS":"545.777","BSTAR":"0.00006981000000","FILE":"3117438","CENTER_NAME":"EARTH","ECCENTRICITY":"0.00021160","EPOCH":"2021-09-16T18:56:55.131072","ELEMENT_SET_NO":"999","GP_ID":"184853432","MEAN_MOTION":"15.06390736","COUNTRY_CODE":"US","SEMIMAJOR_AXIS":"6925.377","RA_OF_ASC_NODE":"130.9586","OBJECT_TYPE":"PAYLOAD","OBJECT_NAME":"STARLINK-2631","ARG_OF_PERICENTER":"73.2354","TLE_LINE1":"1 48366U 21038P   21259.78952698  .00000758  00000-0  69810-4 0  9992","REF_FRAME":"TEME","SITE":"AFETR","APOAPSIS":"548.707","RCS_SIZE":"LARGE","MEAN_ELEMENT_THEORY":"SGP4","PERIOD":"95.593","MEAN_MOTION_DDOT":"0.0000000000000","OBJECT_ID":"2021-038P","CLASSIFICATION_TYPE":"U","TLE_LINE2":"2 48366  53.0546 130.9586 0002116  73.2354 286.8867 15.06390736 20746","LAUNCH_DATE":"2021-05-04"},{"RCS_SIZE":"LARGE","MEAN_ELEMENT_THEORY":"SGP4","PERIOD":"95.593","MEAN_MOTION_DDOT":"0.0000000000000","OBJECT_ID":"2021-038Q","CLASSIFICATION_TYPE":"U","TLE_LINE2":"2 48367  53.0563 130.9759 0001972  74.7544 285.3663 15.06391248 20741","LAUNCH_DATE":"2021-05-04","RA_OF_ASC_NODE":"130.9759","OBJECT_NAME":"STARLINK-2643","OBJECT_TYPE":"PAYLOAD","ARG_OF_PERICENTER":"74.7544","TLE_LINE1":"1 48367U 21038Q   21259.78584942 -.00000726  00000-0 -29862-4 0  9996","REF_FRAME":"TEME","SITE":"AFETR","APOAPSIS":"548.606","SEMIMAJOR_AXIS":"6925.375","GP_ID":"184853329","MEAN_MOTION":"15.06391248","COUNTRY_CODE":"US","ECCENTRICITY":"0.00019720","EPOCH":"2021-09-16T18:51:37.389888","ELEMENT_SET_NO":"999","MEAN_ANOMALY":"285.3663","PERIAPSIS":"545.875","BSTAR":"-0.00002986200000","FILE":"3117438","CENTER_NAME":"EARTH","MEAN_MOTION_DOT":"-0.00000726","DECAY_DATE":null,"EPHEMERIS_TYPE":"0","INCLINATION":"53.0563","REV_AT_EPOCH":"2074","TIME_SYSTEM":"UTC","NORAD_CAT_ID":"48367"},{"MEAN_MOTION_DOT":"0.00000583","REV_AT_EPOCH":"2074","EPHEMERIS_TYPE":"0","DECAY_DATE":null,"INCLINATION":"53.0544","TIME_SYSTEM":"UTC","NORAD_CAT_ID":"48368","PERIAPSIS":"545.731","MEAN_ANOMALY":"283.5262","BSTAR":"0.00005804100000","CENTER_NAME":"EARTH","FILE":"3117438","ECCENTRICITY":"0.00021520","EPOCH":"2021-09-16T17:41:15.387360","ELEMENT_SET_NO":"999","GP_ID":"184853335","MEAN_MOTION":"15.06397461","COUNTRY_CODE":"US","SEMIMAJOR_AXIS":"6925.356","RA_OF_ASC_NODE":"131.1938","OBJECT_TYPE":"PAYLOAD","ARG_OF_PERICENTER":"76.5967","OBJECT_NAME":"STARLINK-2623","TLE_LINE1":"1 48368U 21038R   21259.73698365  .00000583  00000-0  58041-4 0  9997","APOAPSIS":"548.712","REF_FRAME":"TEME","SITE":"AFETR","MEAN_ELEMENT_THEORY":"SGP4","RCS_SIZE":"LARGE","OBJECT_ID":"2021-038R","MEAN_MOTION_DDOT":"0.0000000000000","PERIOD":"95.592","CLASSIFICATION_TYPE":"U","LAUNCH_DATE":"2021-05-04","TLE_LINE2":"2 48368  53.0544 131.1938 0002152  76.5967 283.5262 15.06397461 20741"},{"MEAN_MOTION_DOT":"-0.00000676","REV_AT_EPOCH":"2068","INCLINATION":"53.0511","DECAY_DATE":null,"EPHEMERIS_TYPE":"0","TIME_SYSTEM":"UTC","NORAD_CAT_ID":"48369","PERIAPSIS":"545.800","MEAN_ANOMALY":"288.7081","BSTAR":"-0.00002645600000","CENTER_NAME":"EARTH","FILE":"3117121","ECCENTRICITY":"0.00020850","EPOCH":"2021-09-16T09:13:04.499904","ELEMENT_SET_NO":"999","GP_ID":"184823628","MEAN_MOTION":"15.06390147","COUNTRY_CODE":"US","SEMIMAJOR_AXIS":"6925.379","RA_OF_ASC_NODE":"132.7921","OBJECT_TYPE":"PAYLOAD","ARG_OF_PERICENTER":"71.4135","OBJECT_NAME":"STARLINK-2641","TLE_LINE1":"1 48369U 21038S   21259.38407986 -.00000676  00000-0 -26456-4 0  9996","APOAPSIS":"548.688","REF_FRAME":"TEME","SITE":"AFETR","RCS_SIZE":"LARGE","MEAN_ELEMENT_THEORY":"SGP4","OBJECT_ID":"2021-038S","MEAN_MOTION_DDOT":"0.0000000000000","PERIOD":"95.593","CLASSIFICATION_TYPE":"U","LAUNCH_DATE":"2021-05-04","TLE_LINE2":"2 48369  53.0511 132.7921 0002085  71.4135 288.7081 15.06390147 20684"},{"CLASSIFICATION_TYPE":"U","TLE_LINE2":"2 48370  53.0545 130.7116 0002319  75.5139 284.6107 15.06386569 20751","LAUNCH_DATE":"2021-05-04","MEAN_ELEMENT_THEORY":"SGP4","RCS_SIZE":"LARGE","MEAN_MOTION_DDOT":"0.0000000000000","OBJECT_ID":"2021-038T","PERIOD":"95.593","TLE_LINE1":"1 48370U 21038T   21259.84482480  .00000895  00000-0  79044-4 0  9993","APOAPSIS":"548.861","SITE":"AFETR","REF_FRAME":"TEME","RA_OF_ASC_NODE":"130.7116","ARG_OF_PERICENTER":"75.5139","OBJECT_TYPE":"PAYLOAD","OBJECT_NAME":"STARLINK-2621","SEMIMAJOR_AXIS":"6925.390","MEAN_MOTION":"15.06386569","COUNTRY_CODE":"US","GP_ID":"184853746","ELEMENT_SET_NO":"999","ECCENTRICITY":"0.00023190","EPOCH":"2021-09-16T20:16:32.862720","BSTAR":"0.00007904400000","CENTER_NAME":"EARTH","FILE":"3117438","PERIAPSIS":"545.649","MEAN_ANOMALY":"284.6107","TIME_SYSTEM":"UTC","NORAD_CAT_ID":"48370","MEAN_MOTION_DOT":"0.00000895","REV_AT_EPOCH":"2075","INCLINATION":"53.0545","DECAY_DATE":null,"EPHEMERIS_TYPE":"0"},{"GP_ID":"184826785","COUNTRY_CODE":"US","MEAN_MOTION":"15.06393124","SEMIMAJOR_AXIS":"6925.370","OBJECT_NAME":"STARLINK-2589","OBJECT_TYPE":"PAYLOAD","ARG_OF_PERICENTER":"73.4865","RA_OF_ASC_NODE":"130.7287","REF_FRAME":"TEME","SITE":"AFETR","APOAPSIS":"548.717","TLE_LINE1":"1 48371U 21038U   21259.84114515  .00000937  00000-0  81850-4 0  9990","PERIOD":"95.593","MEAN_MOTION_DDOT":"0.0000000000000","OBJECT_ID":"2021-038U","RCS_SIZE":"LARGE","MEAN_ELEMENT_THEORY":"SGP4","TLE_LINE2":"2 48371  53.0555 130.7287 0002140  73.4865 286.6359 15.06393124 21349","LAUNCH_DATE":"2021-05-04","CLASSIFICATION_TYPE":"U","DECAY_DATE":null,"INCLINATION":"53.0555","EPHEMERIS_TYPE":"0","REV_AT_EPOCH":"2134","MEAN_MOTION_DOT":"0.00000937","NORAD_CAT_ID":"48371","TIME_SYSTEM":"UTC","MEAN_ANOMALY":"286.6359","PERIAPSIS":"545.753","FILE":"3117257","CENTER_NAME":"EARTH","BSTAR":"0.00008185000000","ECCENTRICITY":"0.00021400","EPOCH":"2021-09-16T20:11:14.940960","ELEMENT_SET_NO":"999"},{"REV_AT_EPOCH":"2074","EPHEMERIS_TYPE":"0","DECAY_DATE":null,"INCLINATION":"53.0554","MEAN_MOTION_DOT":"0.00001031","NORAD_CAT_ID":"48372","TIME_SYSTEM":"UTC","PERIAPSIS":"545.756","MEAN_ANOMALY":"281.1257","CENTER_NAME":"EARTH","FILE":"3117438","BSTAR":"0.00008810300000","EPOCH":"2021-09-16T18:30:23.497056","ECCENTRICITY":"0.00021250","ELEMENT_SET_NO":"999","GP_ID":"184853649","MEAN_MOTION":"15.06395283","COUNTRY_CODE":"US","SEMIMAJOR_AXIS":"6925.363","ARG_OF_PERICENTER":"78.9971","OBJECT_TYPE":"PAYLOAD","OBJECT_NAME":"STARLINK-2572","RA_OF_ASC_NODE":"131.0405","APOAPSIS":"548.700","SITE":"AFETR","REF_FRAME":"TEME","TLE_LINE1":"1 48372U 21038V   21259.77110529  .00001031  00000-0  88103-4 0  9998","OBJECT_ID":"2021-038V","MEAN_MOTION_DDOT":"0.0000000000000","PERIOD":"95.592","RCS_SIZE":"MEDIUM","MEAN_ELEMENT_THEORY":"SGP4","TLE_LINE2":"2 48372  53.0554 131.0405 0002125  78.9971 281.1257 15.06395283 20744","LAUNCH_DATE":"2021-05-04","CLASSIFICATION_TYPE":"U"}];
